{
  "type": "FeatureCollection",
  "features": [
    {
      "type": "Feature",
      "properties": {
        "norad_id": 36045,
        "name": "COSMOS 2251 DEB",
        "group": "cosmos-2251-debris",
        "lat": 22.844688502008843,
        "lon": -117.11619150584623,
        "alt_km": 649.6993827980668,
        "timestamp": "2025-12-07T05:38:10.300601+00:00",
        "meta_object_name": "COSMOS 2251 DEB",
        "meta_object_id": "1993-036AXG",
        "meta_epoch": "2025-12-06T12:35:46.842144",
        "meta_mean_motion": 14.69624154,
        "meta_eccentricity": 0.00486216,
        "meta_inclination": 73.7645,
        "meta_ra_of_asc_node": 71.3331,
        "meta_arg_of_pericenter": 87.3165,
        "meta_mean_anomaly": 273.3569,
        "meta_ephemeris_type": 0,
        "meta_classification_type": "U",
        "meta_norad_cat_id": 36045,
        "meta_element_set_no": 999,
        "meta_rev_at_epoch": 8297,
        "meta_bstar": 0.0044051955,
        "meta_mean_motion_dot": 0.00026747,
        "meta_mean_motion_ddot": 0,
        "tle_line1": "1 36045U 93036AXG 25340.52484771  .00026747  00000+0  44052-2 0  9993",
        "tle_line2": "2 36045  73.7645  71.3331 0048621  87.3165 273.3569 14.69624154 82974"
      },
      "geometry": {
        "type": "Point",
        "coordinates": [
          -117.11619150584623,
          22.844688502008843
        ]
      }
    },
    {
      "type": "Feature",
      "properties": {
        "norad_id": 36046,
        "name": "COSMOS 2251 DEB",
        "group": "cosmos-2251-debris",
        "lat": -51.78095486059359,
        "lon": -94.24267388705749,
        "alt_km": 707.658513413654,
        "timestamp": "2025-12-07T05:38:10.300611+00:00",
        "meta_object_name": "COSMOS 2251 DEB",
        "meta_object_id": "1993-036AXH",
        "meta_epoch": "2025-12-06T03:44:04.978752",
        "meta_mean_motion": 14.65199158,
        "meta_eccentricity": 0.0055425,
        "meta_inclination": 74.0158,
        "meta_ra_of_asc_node": 289.1818,
        "meta_arg_of_pericenter": 76.9572,
        "meta_mean_anomaly": 298.4927,
        "meta_ephemeris_type": 0,
        "meta_classification_type": "U",
        "meta_norad_cat_id": 36046,
        "meta_element_set_no": 999,
        "meta_rev_at_epoch": 63907,
        "meta_bstar": 0.0011045621,
        "meta_mean_motion_dot": 6.055e-05,
        "meta_mean_motion_ddot": 0,
        "tle_line1": "1 36046U 93036AXH 25340.15561318  .00006055  00000+0  11046-2 0  9993",
        "tle_line2": "2 36046  74.0158 289.1818 0055425  76.9572 298.4927 14.65199158639075"
      },
      "geometry": {
        "type": "Point",
        "coordinates": [
          -94.24267388705749,
          -51.78095486059359
        ]
      }
    },
    {
      "type": "Feature",
      "properties": {
        "norad_id": 36047,
        "name": "COSMOS 2251 DEB",
        "group": "cosmos-2251-debris",
        "lat": -6.604343493437642,
        "lon": -16.62633439628228,
        "alt_km": 578.6782667412845,
        "timestamp": "2025-12-07T05:38:10.300621+00:00",
        "meta_object_name": "COSMOS 2251 DEB",
        "meta_object_id": "1993-036AXJ",
        "meta_epoch": "2025-12-06T07:11:27.868704",
        "meta_mean_motion": 14.95547906,
        "meta_eccentricity": 0.00079611,
        "meta_inclination": 74.0355,
        "meta_ra_of_asc_node": 347.1599,
        "meta_arg_of_pericenter": 12.8057,
        "meta_mean_anomaly": 347.3328,
        "meta_ephemeris_type": 0,
        "meta_classification_type": "U",
        "meta_norad_cat_id": 36047,
        "meta_element_set_no": 999,
        "meta_rev_at_epoch": 65843,
        "meta_bstar": 0.0031932011,
        "meta_mean_motion_dot": 0.00035581,
        "meta_mean_motion_ddot": 0,
        "tle_line1": "1 36047U 93036AXJ 25340.29962811  .00035581  00000+0  31932-2 0  9994",
        "tle_line2": "2 36047  74.0355 347.1599 0007961  12.8057 347.3328 14.95547906658436"
      },
      "geometry": {
        "type": "Point",
        "coordinates": [
          -16.62633439628228,
          -6.604343493437642
        ]
      }
    },
    {
      "type": "Feature",
      "properties": {
        "norad_id": 36048,
        "name": "COSMOS 2251 DEB",
        "group": "cosmos-2251-debris",
        "lat": -10.549655552129229,
        "lon": -53.64247824004667,
        "alt_km": 751.0908791124284,
        "timestamp": "2025-12-07T05:38:10.300631+00:00",
        "meta_object_name": "COSMOS 2251 DEB",
        "meta_object_id": "1993-036AXK",
        "meta_epoch": "2025-12-06T08:40:35.602752",
        "meta_mean_motion": 14.3783428,
        "meta_eccentricity": 0.00263342,
        "meta_inclination": 74.0563,
        "meta_ra_of_asc_node": 311.0147,
        "meta_arg_of_pericenter": 2.3999,
        "meta_mean_anomaly": 148.1442,
        "meta_ephemeris_type": 0,
        "meta_classification_type": "U",
        "meta_norad_cat_id": 36048,
        "meta_element_set_no": 999,
        "meta_rev_at_epoch": 85410,
        "meta_bstar": 0.0005527759,
        "meta_mean_motion_dot": 1.647e-05,
        "meta_mean_motion_ddot": 0,
        "tle_line1": "1 36048U 93036AXK 25340.36152318  .00001647  00000+0  55278-3 0  9992",
        "tle_line2": "2 36048  74.0563 311.0147 0026334   2.3999 148.1442 14.37834280854107"
      },
      "geometry": {
        "type": "Point",
        "coordinates": [
          -53.64247824004667,
          -10.549655552129229
        ]
      }
    },
    {
      "type": "Feature",
      "properties": {
        "norad_id": 36049,
        "name": "COSMOS 2251 DEB",
        "group": "cosmos-2251-debris",
        "lat": -23.698654374437186,
        "lon": 122.5041670810971,
        "alt_km": 695.8124847947547,
        "timestamp": "2025-12-07T05:38:10.300642+00:00",
        "meta_object_name": "COSMOS 2251 DEB",
        "meta_object_id": "1993-036AXL",
        "meta_epoch": "2025-12-06T10:02:31.964064",
        "meta_mean_motion": 14.62007572,
        "meta_eccentricity": 0.00110936,
        "meta_inclination": 74.0303,
        "meta_ra_of_asc_node": 131.2879,
        "meta_arg_of_pericenter": 216.0889,
        "meta_mean_anomaly": 143.953,
        "meta_ephemeris_type": 0,
        "meta_classification_type": "U",
        "meta_norad_cat_id": 36049,
        "meta_element_set_no": 999,
        "meta_rev_at_epoch": 85272,
        "meta_bstar": 0.0027130423,
        "meta_mean_motion_dot": 0.00013616,
        "meta_mean_motion_ddot": 0,
        "tle_line1": "1 36049U 93036AXL 25340.41842551  .00013616  00000+0  27130-2 0  9998",
        "tle_line2": "2 36049  74.0303 131.2879 0011093 216.0889 143.9530 14.62007572852723"
      },
      "geometry": {
        "type": "Point",
        "coordinates": [
          122.5041670810971,
          -23.698654374437186
        ]
      }
    },
    {
      "type": "Feature",
      "properties": {
        "norad_id": 36050,
        "name": "COSMOS 2251 DEB",
        "group": "cosmos-2251-debris",
        "lat": -2.4900199555340152,
        "lon": -155.4790738569657,
        "alt_km": 546.9117966307258,
        "timestamp": "2025-12-07T05:38:10.300675+00:00",
        "meta_object_name": "COSMOS 2251 DEB",
        "meta_object_id": "1993-036AXM",
        "meta_epoch": "2025-12-06T08:51:05.095872",
        "meta_mean_motion": 15.00898049,
        "meta_eccentricity": 0.00889957,
        "meta_inclination": 74.031,
        "meta_ra_of_asc_node": 206.997,
        "meta_arg_of_pericenter": 288.0821,
        "meta_mean_anomaly": 71.0686,
        "meta_ephemeris_type": 0,
        "meta_classification_type": "U",
        "meta_norad_cat_id": 36050,
        "meta_element_set_no": 999,
        "meta_rev_at_epoch": 66939,
        "meta_bstar": 0.00092236515,
        "meta_mean_motion_dot": 0.0001276,
        "meta_mean_motion_ddot": 0,
        "tle_line1": "1 36050U 93036AXM 25340.36880898  .00012760  00000+0  92237-3 0  9990",
        "tle_line2": "2 36050  74.0310 206.9970 0088995 288.0821  71.0686 15.00898049669397"
      },
      "geometry": {
        "type": "Point",
        "coordinates": [
          -155.4790738569657,
          -2.4900199555340152
        ]
      }
    },
    {
      "type": "Feature",
      "properties": {
        "norad_id": 36053,
        "name": "COSMOS 2251 DEB",
        "group": "cosmos-2251-debris",
        "lat": 48.44058045338693,
        "lon": -177.70035353824014,
        "alt_km": 687.3162510692518,
        "timestamp": "2025-12-07T05:38:10.300686+00:00",
        "meta_object_name": "COSMOS 2251 DEB",
        "meta_object_id": "1993-036AXQ",
        "meta_epoch": "2025-12-06T04:41:05.022528",
        "meta_mean_motion": 14.57036402,
        "meta_eccentricity": 0.00330469,
        "meta_inclination": 73.8695,
        "meta_ra_of_asc_node": 165.2413,
        "meta_arg_of_pericenter": 116.5127,
        "meta_mean_anomaly": 243.9431,
        "meta_ephemeris_type": 0,
        "meta_classification_type": "U",
        "meta_norad_cat_id": 36053,
        "meta_element_set_no": 999,
        "meta_rev_at_epoch": 87349,
        "meta_bstar": 0.0025260669,
        "meta_mean_motion_dot": 0.00011441,
        "meta_mean_motion_ddot": 0,
        "tle_line1": "1 36053U 93036AXQ 25340.19519702  .00011441  00000+0  25261-2 0  9994",
        "tle_line2": "2 36053  73.8695 165.2413 0033046 116.5127 243.9431 14.57036402873497"
      },
      "geometry": {
        "type": "Point",
        "coordinates": [
          -177.70035353824014,
          48.44058045338693
        ]
      }
    }
  ]
}